[{"OBJECT_NAME":"OBJECT E","OBJECT_ID":"2024-173E","EPOCH":"2026-03-06T17:42:26.111808","MEAN_MOTION":15.19185166,"ECCENTRICITY":0.00017005,"INCLINATION":97.4124,"RA_OF_ASC_NODE":139.822,"ARG_OF_PERICENTER":89.2671,"MEAN_ANOMALY":270.8758,"EPHEMERIS_TYPE":0,"CLASSIFICATION_TYPE":"U","NORAD_CAT_ID":61231,"ELEMENT_SET_NO":999,"REV_AT_EPOCH":8020,"BSTAR":0.00013859811,"MEAN_MOTION_DOT":2.848e-5,"MEAN_MOTION_DDOT":0},{"OBJECT_NAME":"FLOCK 4H-23","OBJECT_ID":"2025-276BN","EPOCH":"2026-03-09T18:23:34.268640","MEAN_MOTION":15.18478039,"ECCENTRICITY":0.00040265,"INCLINATION":97.4304,"RA_OF_ASC_NODE":144.0252,"ARG_OF_PERICENTER":1.961,"MEAN_ANOMALY":358.1639,"EPHEMERIS_TYPE":0,"CLASSIFICATION_TYPE":"U","NORAD_CAT_ID":66726,"ELEMENT_SET_NO":999,"REV_AT_EPOCH":1532,"BSTAR":0.00039949076,"MEAN_MOTION_DOT":8.172e-5,"MEAN_MOTION_DDOT":0}]
